NORAD_CAT_ID,OBJECT_NAME,OBJECT_TYPE,EPOCH,MEAN_MOTION,ECCENTRICITY,INCLINATION,RA_OF_ASC_NODE,ARG_OF_PERICENTER,MEAN_ANOMALY,BSTAR,MEAN_MOTION_DOT,MEAN_MOTION_DDOT,TLE_LINE0,TLE_LINE1,TLE_LINE2,SEMIMAJOR_AXIS,PERIOD,APOGEE,PERIGEE,DECAYED
53716.0,STARLINK-4699,PAYLOAD,2024-08-13 05:16:13,15.08825464,0.0001105,53.2159,308.2078,74.7655,285.3459,2.6556e-05,1.35e-06,0.0,0 STARLINK-4699,1 53716U 22107S   24226.21960494  .00000135  00000-0  26556-4 0  9992,2 53716  53.2159 308.2078 0001105  74.7655 285.3459 15.08825464107386,6917.925,95.438,540.554,539.025,0.0
53716.0,STARLINK-4699,PAYLOAD,2024-08-13 11:37:45,15.0883758,0.0001553,53.2153,307.0227,80.474,279.6427,0.00010103,1.32e-05,0.0,0 STARLINK-4699,1 53716U 22107S   24226.48455928  .00001320  00000-0  10103-3 0  9999,2 53716  53.2153 307.0227 0001553  80.4740 279.6427 15.08837580107427,6917.888,95.438,540.827,538.678,0.0
53716.0,STARLINK-4699,PAYLOAD,2024-08-14 05:07:01,15.08821087,0.0001439,53.218,303.7528,79.9774,280.1381,-0.00010515,-1.96e-05,0.0,0 STARLINK-4699,1 53716U 22107S   24227.21321663 -.00001960  00000-0 -10515-3 0  9998,2 53716  53.2180 303.7528 0001439  79.9774 280.1381 15.08821087107530,6917.938,95.439,540.799,538.808,0.0
53716.0,STARLINK-4699,PAYLOAD,2024-08-14 11:28:34,15.08829748,0.000138,53.2157,302.5607,85.3018,274.8132,5.6252e-05,6.07e-06,0.0,0 STARLINK-4699,1 53716U 22107S   24227.47817294  .00000607  00000-0  56252-4 0  9990,2 53716  53.2157 302.5607 0001380  85.3018 274.8132 15.08829748107576,6917.912,95.438,540.731,538.822,0.0
53716.0,STARLINK-4699,PAYLOAD,2024-08-14 16:14:43,15.0884002,0.0001435,53.2148,301.6667,88.197,271.9187,8.1593e-05,1.011e-05,0.0,0 STARLINK-4699,1 53716U 22107S   24227.67688723  .00001011  00000-0  81593-4 0  9991,2 53716  53.2148 301.6667 0001435  88.1970 271.9187 15.08840020107609,6917.88,95.438,540.738,538.753,0.0
53716.0,STARLINK-4699,PAYLOAD,2024-08-14 22:36:15,15.0883581,0.0001417,53.2149,300.4773,81.3933,278.722,0.00041872,6.381e-05,0.0,0 STARLINK-4699,1 53716U 22107S   24227.94185016  .00006381  00000-0  41872-3 0  9998,2 53716  53.2149 300.4773 0001417  81.3933 278.7220 15.08835810108097,6917.893,95.438,540.738,538.778,0.0
53716.0,STARLINK-4699,PAYLOAD,2024-08-15 11:19:21,15.08831714,0.0001452,53.2176,298.0976,93.0587,267.0571,0.0002814,4.192e-05,0.0,0 STARLINK-4699,1 53716U 22107S   24228.47177731  .00004192  00000-0  28140-3 0  9993,2 53716  53.2176 298.0976 0001452  93.0587 267.0571 15.08831714108176,6917.906,95.438,540.775,538.766,0.0
53716.0,STARLINK-4699,PAYLOAD,2024-08-15 16:05:30,15.0883685,0.0001611,53.2162,297.2047,98.1656,261.9519,0.00027785,4.136e-05,0.0,0 STARLINK-4699,1 53716U 22107S   24228.67049526  .00004136  00000-0  27785-3 0  9997,2 53716  53.2162 297.2047 0001611  98.1656 261.9519 15.08836850107755,6917.89,95.438,540.869,538.641,0.0
53716.0,STARLINK-4699,PAYLOAD,2024-08-16 09:34:46,15.08828445,0.00015,53.216,293.9325,96.9201,263.1962,0.00013848,1.916e-05,0.0,0 STARLINK-4699,1 53716U 22107S   24229.39914396  .00001916  00000-0  13848-3 0  9991,2 53716  53.2160 293.9325 0001500  96.9201 263.1962 15.08828445107863,6917.916,95.438,540.818,538.743,0.0
53716.0,STARLINK-4699,PAYLOAD,2024-08-17 07:50:09,15.08834486,0.0001597,53.2151,289.7684,109.3291,250.7874,9.6323e-05,1.245e-05,0.0,0 STARLINK-4699,1 53716U 22107S   24230.32650347  .00001245  00000-0  96323-4 0  9994,2 53716  53.2151 289.7684 0001597 109.3291 250.7874 15.08834486108450,6917.897,95.438,540.867,538.657,0.0
53716.0,STARLINK-4699,PAYLOAD,2024-08-18 04:30:10,15.08842364,0.0001248,53.215,285.9064,89.3969,270.7166,0.00019874,2.877e-05,0.0,0 STARLINK-4699,1 53716U 22107S   24231.18762140  .00002877  00000-0  19874-3 0  9991,2 53716  53.2150 285.9064 0001248  89.3969 270.7166 15.08842364108136,6917.873,95.437,540.602,538.875,0.0
53716.0,STARLINK-4699,PAYLOAD,2024-08-18 09:16:19,15.08843678,0.0001328,53.215,285.0136,93.6989,266.4155,0.00024129,3.555e-05,0.0,0 STARLINK-4699,1 53716U 22107S   24231.38634073  .00003555  00000-0  24129-3 0  9999,2 53716  53.2150 285.0136 0001328  93.6989 266.4155 15.08843678108618,6917.869,95.437,540.653,538.815,0.0
53716.0,STARLINK-4699,PAYLOAD,2024-08-19 12:17:53,15.08841383,0.0001331,53.2147,279.9584,92.4361,267.6783,2.2981e-05,7.8e-07,0.0,0 STARLINK-4699,1 53716U 22107S   24232.51241946  .00000078  00000-0  22981-4 0  9990,2 53716  53.2147 279.9584 0001331  92.4361 267.6783 15.08841383108338,6917.876,95.437,540.662,538.82,0.0
53716.0,STARLINK-4699,PAYLOAD,2024-08-20 10:33:16,15.08844994,0.000134,53.2155,275.7937,90.1593,269.9553,5.9156e-05,6.54e-06,0.0,0 STARLINK-4699,1 53716U 22107S   24233.43977902  .00000654  00000-0  59156-4 0  9994,2 53716  53.2155 275.7937 0001340  90.1593 269.9553 15.08844994108921,6917.865,95.437,540.657,538.803,0.0
53716.0,STARLINK-4699,PAYLOAD,2024-08-21 02:27:08,15.08841326,0.00015,53.2158,272.8219,78.0105,282.1055,0.00011366,1.521e-05,0.0,0 STARLINK-4699,1 53716U 22107S   24234.10217953  .00001521  00000-0  11366-3 0  9996,2 53716  53.2158 272.8219 0001500  78.0105 282.1055 15.08841326108578,6917.876,95.437,540.779,538.704,0.0
53716.0,STARLINK-4699,PAYLOAD,2024-08-21 10:24:03,15.08842232,0.0001469,53.2157,271.334,79.4323,280.6835,0.00011256,1.504e-05,0.0,0 STARLINK-4699,1 53716U 22107S   24234.43337931  .00001504  00000-0  11256-3 0  9990,2 53716  53.2157 271.3340 0001469  79.4323 280.6835 15.08842232109079,6917.874,95.437,540.755,538.722,0.0
53716.0,STARLINK-4699,PAYLOAD,2024-08-21 19:56:22,15.0884508,0.0001406,53.2155,269.5499,86.0307,274.0846,0.00011682,1.572e-05,0.0,0 STARLINK-4699,1 53716U 22107S   24234.83081649  .00001572  00000-0  11682-3 0  9994,2 53716  53.2155 269.5499 0001406  86.0307 274.0846 15.08845080109138,6917.865,95.437,540.703,538.757,0.0
